STARLINK-32262          
1 60938U 24155Q   26157.83335647  .00154714  00000+0  69549-3 0  9990
2 60938  53.1381  32.3771 0003572  84.2065  21.1706 15.83150308  5932
STARLINK-32258          
1 60939U 24155R   26156.66668981  .00086796  00000+0  25554-2 0  9992
2 60939  53.1603  80.7848 0000883 101.8131 268.9984 15.34339326  5871
STARLINK-32251          
1 60940U 24155S   26157.83335647  .00021311  00000+0  64049-3 0  9999
2 60940  53.1583  75.5825 0001329  94.8849 116.0664 15.34378827  5855
STARLINK-32224          
1 60941U 24155T   26157.47532769  .00000330  00000+0  23275-4 0  9999
2 60941  53.1603  77.3171 0001347  80.4717 279.6436 15.30196253 99941
STARLINK-32184          
1 60942U 24155U   26156.92950599  .00026702  00000+0  79875-3 0  9991
2 60942  53.1607  79.6058 0000907  58.1975 301.9116 15.34393708 99801
STARLINK-32288          
1 60943U 24155V   26156.93160479  .00000691  00000+0  31587-4 0  9991
2 60943  53.1615  79.6128 0001312  81.3771 278.7380 15.34395499 99805
STARLINK-32276          
1 60944U 24155W   26157.48903466 -.00004277  00000+0 -13234-3 0  9998
2 60944  53.1622  77.3989 0001343 122.2576 237.8555 15.30206019 99980
YAOGAN-43 02A           
1 60945U 24156A   26157.62479154  .00053778  00000+0  96389-3 0  9998
2 60945  34.9940 221.8746 0003514 174.9799 185.0959 15.48823155 98325
YAOGAN-43 02B           
1 60946U 24156B   26155.46459765  .00012509  00000+0  51583-3 0  9999
2 60946  34.9958 278.0235 0003732  15.6541 344.4289 15.23261349 97500
YAOGAN-43 02C           
1 60947U 24156C   26157.75521178  .00008944  00000+0  37348-3 0  9993
2 60947  34.9986 263.7325 0003560 285.3532  74.6789 15.22895565 97855
YAOGAN-43 02D           
1 60948U 24156D   26157.76246816  .00009761  00000+0  40631-3 0  9995
2 60948  34.9923 263.5200 0002064 177.5366 182.5359 15.22988947 97851
YAOGAN-43 02E           
1 60949U 24156E   26153.50468267  .00014008  00000+0  57663-3 0  9993
2 60949  34.9977 290.5076 0001677 257.9873 102.0653 15.23307844 97202
YAOGAN-43 02F           
1 60950U 24156F   26157.75659216  .00010380  00000+0  43196-3 0  9997
2 60950  34.9931 263.4821 0001389 261.5912  98.4645 15.22990074 97858
SENTINEL-2C             
1 60989U 24157A   26157.61309568  .00000115  00000+0  60587-4 0  9996
2 60989  98.5692 232.5443 0001202  78.7355 281.3963 14.30814942 91475
STARLINK-11289 [DTC]    
1 60991U 24158B   26157.42013537  .00006517  00000+0  58488-4 0  9996
2 60991  53.1577 203.6414 0000703  65.6330 294.4762 15.69757273101534
STARLINK-11282 [DTC]    
1 60992U 24158C   26156.41617472 -.00000130  00000+0  37891-5 0  9995
2 60992  53.1589 208.7624 0001068 113.3542 246.7588 15.69708552101372
STARLINK-11283 [DTC]    
1 60993U 24158D   26157.40554559  .00000879  00000+0  12108-4 0  9994
2 60993  53.1576 204.2889 0001188  60.6997 299.4139 15.69717062101524
STARLINK-11267 [DTC]    
1 60994U 24158E   26157.40064057  .00000555  00000+0  94345-5 0  9999
2 60994  53.1591 204.2517 0000689  91.2418 268.8679 15.69715467101529
STARLINK-11269 [DTC]    
1 60995U 24158F   26157.39577015 -.00018163  00000+0 -14463-3 0  9998
2 60995  53.1591 204.2138 0001081  17.8816 342.2240 15.69834513101516
STARLINK-11281 [DTC]    
1 60996U 24158G   26157.83652291  .00000584  00000+0  96811-5 0  9993
2 60996  53.1576 201.9851 0001056  74.7739 285.3395 15.69694834101589
STARLINK-11260 [DTC]    
1 60997U 24158H   26157.76980289  .00000501  00000+0  89905-5 0  9992
2 60997  53.1577 179.9692 0000860  86.6150 273.4966 15.69713773101945
STARLINK-11287 [DTC]    
1 60998U 24158J   26157.83160970 -.00000046  00000+0  44829-5 0  9999
2 60998  53.1594 201.9486 0001157  50.9817 309.1304 15.69712746101588
STARLINK-11270 [DTC]    
1 60999U 24158K   26157.82670627  .00148985  00000+0  12132-2 0  9997
2 60999  53.1560 201.9225 0001658  93.3790 266.7417 15.69699127101580
STARLINK-11290 [DTC]    
1 61000U 24158L   26157.82179124  .00002507  00000+0  25546-4 0  9991
2 61000  53.1595 201.8882 0001025  95.6578 264.4557 15.69707960101650
STARLINK-11274 [DTC]    
1 61001U 24158M   26157.42996365  .00001602  00000+0  18073-4 0  9994
2 61001  53.1580 203.7062 0001146  68.8526 291.2615 15.69724228101520
STARLINK-11288 [DTC]    
1 61002U 24158N   26157.42505639  .00001122  00000+0  14111-4 0  9991
2 61002  53.1584 203.6703 0001278  72.8827 287.2331 15.69719732101525
STARLINK-32279          
1 61003U 24158P   26157.83335647  .00011354  00000+0  34645-3 0  9998
2 61003  53.1605  11.3529 0001018  75.8286 195.8155 15.34418739  5902
STARLINK-32336          
1 61004U 24158Q   26157.83335647  .00004845  00000+0  15868-3 0  9992
2 61004  53.1610  11.4144 0001169  88.1876 152.9559 15.33525347  5907
STARLINK-32284          
1 61005U 24158R   26157.84723326  .00000088  00000+0  13707-4 0  9995
2 61005  53.1604  11.2692 0000561 100.1667 259.9399 15.34416232 99237
STARLINK-32282          
1 61006U 24158S   26157.85069541  .00005836  00000+0  20923-3 0  9992
2 61006  53.1595  11.2853 0001644  99.7766 260.3421 15.30166908 99300
