OBJECT_NAME,OBJECT_ID,EPOCH,MEAN_MOTION,ECCENTRICITY,INCLINATION,RA_OF_ASC_NODE,ARG_OF_PERICENTER,MEAN_ANOMALY,EPHEMERIS_TYPE,CLASSIFICATION_TYPE,NORAD_CAT_ID,ELEMENT_SET_NO,REV_AT_EPOCH,BSTAR,MEAN_MOTION_DOT,MEAN_MOTION_DDOT
STARLINK-32262,2024-155Q,2026-06-06T20:00:01.999008,15.83150308,.0003572,53.1381,32.3771,84.2065,21.1706,0,U,60938,999,593,.69549E-3,.154714E-2,0
STARLINK-32258,2024-155R,2026-06-05T16:00:01.999584,15.34339326,.00008835,53.1603,80.7848,101.8131,268.9984,0,U,60939,999,587,.25553729E-2,.86796E-3,0
STARLINK-32251,2024-155S,2026-06-06T20:00:01.999008,15.34378827,.0001329,53.1583,75.5825,94.8849,116.0664,0,U,60940,999,585,.64049E-3,.21311E-3,0
STARLINK-32224,2024-155T,2026-06-06T11:24:28.312416,15.30196253,.00013471,53.1603,77.3171,80.4717,279.6436,0,U,60941,999,9994,.23275115E-4,.33E-5,0
STARLINK-32184,2024-155U,2026-06-05T22:18:29.317536,15.34393708,.00009079,53.1607,79.6058,58.1975,301.9116,0,U,60942,999,9980,.79875221E-3,.26702E-3,0
STARLINK-32288,2024-155V,2026-06-05T22:21:30.653856,15.34395499,.00013128,53.1615,79.6128,81.3771,278.7380,0,U,60943,999,9980,.31587046E-4,.691E-5,0
STARLINK-32276,2024-155W,2026-06-06T11:44:12.594624,15.30206019,.00013437,53.1622,77.3989,122.2576,237.8555,0,U,60944,999,9998,-.13233752E-3,-.4277E-4,0
YAOGAN-43 02A,2024-156A,2026-06-06T14:59:41.989056,15.48823155,.0003514,34.9940,221.8746,174.9799,185.0959,0,U,60945,999,9832,.96389E-3,.53778E-3,0
YAOGAN-43 02B,2024-156B,2026-06-04T11:09:01.236960,15.23261349,.00037329,34.9958,278.0235,15.6541,344.4289,0,U,60946,999,9750,.51582548E-3,.12509E-3,0
YAOGAN-43 02C,2024-156C,2026-06-06T18:07:30.297792,15.22895565,.000356,34.9986,263.7325,285.3532,74.6789,0,U,60947,999,9785,.37348E-3,.8944E-4,0
YAOGAN-43 02D,2024-156D,2026-06-06T18:17:57.249024,15.22988947,.0002064,34.9923,263.5200,177.5366,182.5359,0,U,60948,999,9785,.40631E-3,.9761E-4,0
YAOGAN-43 02E,2024-156E,2026-06-02T12:06:44.582688,15.23307844,.00016778,34.9977,290.5076,257.9873,102.0653,0,U,60949,999,9720,.57662914E-3,.14008E-3,0
YAOGAN-43 02F,2024-156F,2026-06-06T18:09:29.562624,15.22990074,.0001389,34.9931,263.4821,261.5912,98.4645,0,U,60950,999,9785,.43196E-3,.1038E-3,0
SENTINEL-2C,2024-157A,2026-06-06T14:42:51.466752,14.30814942,.0001202,98.5692,232.5443,78.7355,281.3963,0,U,60989,999,9147,.60587E-4,.115E-5,0
STARLINK-11289 [DTC],2024-158B,2026-06-06T10:04:59.695968,15.69757273,.0000703,53.1577,203.6414,65.6330,294.4762,0,U,60991,999,10153,.5848849E-4,.6517E-4,0
STARLINK-11282 [DTC],2024-158C,2026-06-05T09:59:17.495808,15.69708552,.0001068,53.1589,208.7624,113.3542,246.7588,0,U,60992,999,10137,.3789093E-5,-.13E-5,0
STARLINK-11283 [DTC],2024-158D,2026-06-06T09:43:59.138976,15.69717062,.00011888,53.1576,204.2889,60.6997,299.4139,0,U,60993,999,10152,.12108079E-4,.879E-5,0
STARLINK-11267 [DTC],2024-158E,2026-06-06T09:36:55.345248,15.69715467,.00006895,53.1591,204.2517,91.2418,268.8679,0,U,60994,999,10152,.9434471E-5,.555E-5,0
STARLINK-11269 [DTC],2024-158F,2026-06-06T09:29:54.540960,15.69834513,.00010814,53.1591,204.2138,17.8816,342.2240,0,U,60995,999,10151,-.14462628E-3,-.18163E-3,0
STARLINK-11281 [DTC],2024-158G,2026-06-06T20:04:35.579424,15.69694834,.0001056,53.1576,201.9851,74.7739,285.3395,0,U,60996,999,10158,.96811E-5,.584E-5,0
STARLINK-11260 [DTC],2024-158H,2026-06-06T18:28:30.969696,15.69713773,.000086,53.1577,179.9692,86.6150,273.4966,0,U,60997,999,10194,.89905E-5,.501E-5,0
STARLINK-11287 [DTC],2024-158J,2026-06-06T19:57:31.078080,15.69712746,.0001157,53.1594,201.9486,50.9817,309.1304,0,U,60998,999,10158,.44829E-5,-.46E-6,0
STARLINK-11270 [DTC],2024-158K,2026-06-06T19:50:27.421728,15.69699127,.0001658,53.1560,201.9225,93.3790,266.7417,0,U,60999,999,10158,.12132E-2,.148985E-2,0
STARLINK-11290 [DTC],2024-158L,2026-06-06T19:43:22.763136,15.69707960,.0001025,53.1595,201.8882,95.6578,264.4557,0,U,61000,999,10165,.25546E-4,.2507E-4,0
STARLINK-11274 [DTC],2024-158M,2026-06-06T10:19:08.859360,15.69724228,.00011465,53.1580,203.7062,68.8526,291.2615,0,U,61001,999,10152,.18073449E-4,.1602E-4,0
STARLINK-11288 [DTC],2024-158N,2026-06-06T10:12:04.872096,15.69719732,.00012783,53.1584,203.6703,72.8827,287.2331,0,U,61002,999,10152,.14111195E-4,.1122E-4,0
STARLINK-32279,2024-158P,2026-06-06T20:00:01.999008,15.34418739,.0001018,53.1605,11.3529,75.8286,195.8155,0,U,61003,999,590,.34645E-3,.11354E-3,0
STARLINK-32336,2024-158Q,2026-06-06T20:00:01.999008,15.33525347,.0001169,53.1610,11.4144,88.1876,152.9559,0,U,61004,999,590,.15868E-3,.4845E-4,0
STARLINK-32284,2024-158R,2026-06-06T20:20:00.953664,15.34416232,.0000561,53.1604,11.2692,100.1667,259.9399,0,U,61005,999,9923,.13707E-4,.88E-6,0
STARLINK-32282,2024-158S,2026-06-06T20:25:00.083424,15.30166908,.0001644,53.1595,11.2853,99.7766,260.3421,0,U,61006,999,9930,.20923E-3,.5836E-4,0
